0 COSMOS 689
1 07476U 74079A   13282.77752076  .00000039  00000-0  26419-4 0  5172
2 07476 082.9452 352.8642 0030432 029.0261 110.3181 13.72031680951212
0 COSMOS 689
1 07476U 74079A   13283.79840216  .00000049  00000-0  36939-4 0  5189
2 07476 082.9451 352.1120 0030368 026.2335 112.7309 13.72031649951352
0 COSMOS 689
1 07476U 74079A   13286.11655038  .00000073  00000-0  63351-4 0  5202
2 07476 082.9447 350.4039 0030212 019.8801 042.7116 13.72031587951675
0 COSMOS 689
1 07476U 74079A   13287.13655091  .00000073  00000-0  63070-4 0  5213
2 07476 082.9444 349.6524 0030137 017.0656 040.7973 13.72031626951814
0 COSMOS 689
1 07476U 74079A   13288.15157410  .00000078  00000-0  69579-4 0  5224
2 07476 082.9441 348.9043 0030076 014.2116 014.3520 13.72031724951950
0 COSMOS 689
1 07476U 74079A   13289.17720345  .00000067  00000-0  56926-4 0  5231
2 07476 082.9439 348.1486 0030014 011.2890 040.3326 13.72031978952098
0 COSMOS 689
1 07476U 74079A   13290.34802318  .00000059  00000-0  47807-4 0  5243
2 07476 082.9436 347.2857 0029933 008.0447 063.3746 13.72032146952254
0 COSMOS 689
1 07476U 74079A   13291.52313044  .00000050  00000-0  38233-4 0  5252
2 07476 082.9434 346.4196 0029863 004.7342 107.6483 13.72032229952418
0 COSMOS 689
1 07476U 74079A   13292.76740647  .00000048  00000-0  35762-4 0  5264
2 07476 082.9433 345.5025 0029770 001.3117 133.4893 13.72032521952583
0 COSMOS 689
1 07476U 74079A   13293.85921140  .00000052  00000-0  40223-4 0  5278
2 07476 082.9433 344.6977 0029697 358.2165 126.3247 13.72032632952738
0 COSMOS 689
1 07476U 74079A   13295.15720779  .00000033  00000-0  19432-4 0  5286
2 07476 082.9432 343.7409 0029618 354.5316 057.6216 13.72032698952911
0 COSMOS 689
1 07476U 74079A   13296.17821187  .00000033  00000-0  20290-4 0  5299
2 07476 082.9432 342.9883 0029580 351.5896 060.7931 13.72032640953058
